{
    "links": {
        "self": "http://www.neowsapp.com/rest/v1/neo/3730692?api_key=iIulBulltgU6a56xZRHN4H3l9WmuAYTsLGpBGhQ2"
    },
    "id": "3730692",
    "neo_reference_id": "3730692",
    "name": "(2015 TT237)",
    "designation": "2015 TT237",
    "nasa_jpl_url": "http://ssd.jpl.nasa.gov/sbdb.cgi?sstr=3730692",
    "absolute_magnitude_h": 21.0,
    "estimated_diameter": {
        "kilometers": {
            "estimated_diameter_min": 0.1677084622,
            "estimated_diameter_max": 0.3750075218
        },
        "meters": {
            "estimated_diameter_min": 167.7084621628,
            "estimated_diameter_max": 375.0075217981
        },
        "miles": {
            "estimated_diameter_min": 0.1042091748,
            "estimated_diameter_max": 0.2330187988
        },
        "feet": {
            "estimated_diameter_min": 550.2246310023,
            "estimated_diameter_max": 1230.3396778159
        }
    },
    "is_potentially_hazardous_asteroid": false,
    "close_approach_data": [
        {
            "close_approach_date": "2015-12-01",
            "close_approach_date_full": "2015-Dec-01 16:01",
            "epoch_date_close_approach": 1448985660000,
            "relative_velocity": {
                "kilometers_per_second": "3.4253406111",
                "kilometers_per_hour": "12331.2262001024",
                "miles_per_hour": "7662.1444130581"
            },
            "miss_distance": {
                "astronomical": "0.3035631773",
                "lunar": "118.0860759697",
                "kilometers": "45412404.734512351",
                "miles": "28217959.8178424038"
            },
            "orbiting_body": "Earth"
        }
    ],
    "orbital_data": {
        "orbit_id": "29",
        "orbit_determination_date": "2017-04-06 08:31:18",
        "first_observation_date": "2015-10-12",
        "last_observation_date": "2016-01-14",
        "data_arc_in_days": 94,
        "observations_used": 149,
        "orbit_uncertainty": "4",
        "minimum_orbit_intersection": ".297553",
        "jupiter_tisserand_invariant": "3.413",
        "epoch_osculation": "2459000.5",
        "eccentricity": ".4532731403003317",
        "semi_major_axis": "2.339290243020632",
        "inclination": "6.205491624172617",
        "ascending_node_longitude": "273.7178822007019",
        "orbital_period": "1306.84653588709",
        "perihelion_distance": "1.278952808492744",
        "perihelion_argument": "155.3548749494703",
        "aphelion_distance": "3.39962767754852",
        "perihelion_time": "2458667.649773178077",
        "mean_anomaly": "91.69101219260926",
        "mean_motion": ".2754722839400813",
        "equinox": "J2000",
        "orbit_class": {
            "orbit_class_type": "AMO",
            "orbit_class_description": "Near-Earth asteroid orbits similar to that of 1221 Amor",
            "orbit_class_range": "1.017 AU < q (perihelion) < 1.3 AU"
        }
    },
    "is_sentry_object": false
}